start=new Date('2022-10-16T00:00:00.000Z').valueOf();
sats=[{"APOAPSIS":"540.805","PERIOD":"95.438","CLASSIFICATION_TYPE":"U","ECCENTRICITY":"0.00015190","FILE":"3614973","MEAN_ANOMALY":"297.6229","RA_OF_ASC_NODE":"79.6641","SEMIMAJOR_AXIS":"6917.889","EPHEMERIS_TYPE":"0","ARG_OF_PERICENTER":"62.4917","MEAN_MOTION_DOT":"-0.00000698","SITE":"AFETR","EPOCH":"2022-10-15T19:22:23.436480","ELEMENT_SET_NO":"999","OBJECT_ID":"2022-052W","BSTAR":"-0.00002577800000","MEAN_MOTION_DDOT":"0.0000000000000","NORAD_CAT_ID":"52618","GP_ID":"215210130","MEAN_MOTION":"15.08837131","MEAN_ELEMENT_THEORY":"SGP4","INCLINATION":"53.2175","RCS_SIZE":"LARGE","CENTER_NAME":"EARTH","LAUNCH_DATE":"2022-05-14","OBJECT_TYPE":"PAYLOAD","COUNTRY_CODE":"US","PERIAPSIS":"538.703","TIME_SYSTEM":"UTC","TLE_LINE1":"1 52618U 22052W   22288.80721570 -.00000698  00000-0 -25778-4 0  9993","OBJECT_NAME":"STARLINK-3983","TLE_LINE2":"2 52618  53.2175  79.6641 0001519  62.4917 297.6229 15.08837131 24038","REF_FRAME":"TEME","REV_AT_EPOCH":"2403","DECAY_DATE":null},{"MEAN_ANOMALY":"307.3727","RA_OF_ASC_NODE":"79.6930","FILE":"3614973","SEMIMAJOR_AXIS":"6917.902","EPHEMERIS_TYPE":"0","ECCENTRICITY":"0.00018790","PERIOD":"95.438","CLASSIFICATION_TYPE":"U","APOAPSIS":"541.067","EPOCH":"2022-10-15T19:13:10.260480","ARG_OF_PERICENTER":"52.7436","MEAN_MOTION_DOT":"-0.00000890","SITE":"AFETR","GP_ID":"215210131","MEAN_MOTION":"15.08832986","INCLINATION":"53.2187","MEAN_ELEMENT_THEORY":"SGP4","OBJECT_ID":"2022-052X","ELEMENT_SET_NO":"999","MEAN_MOTION_DDOT":"0.0000000000000","BSTAR":"-0.00003780800000","NORAD_CAT_ID":"52619","TIME_SYSTEM":"UTC","PERIAPSIS":"538.467","COUNTRY_CODE":"US","REF_FRAME":"TEME","TLE_LINE2":"2 52619  53.2187  79.6930 0001879  52.7436 307.3727 15.08832986 24035","DECAY_DATE":null,"REV_AT_EPOCH":"2403","TLE_LINE1":"1 52619U 22052X   22288.80081320 -.00000890  00000-0 -37808-4 0  9997","OBJECT_NAME":"STARLINK-3741","CENTER_NAME":"EARTH","RCS_SIZE":"LARGE","OBJECT_TYPE":"PAYLOAD","LAUNCH_DATE":"2022-05-14"},{"LAUNCH_DATE":"2022-05-14","OBJECT_TYPE":"PAYLOAD","CENTER_NAME":"EARTH","RCS_SIZE":"LARGE","TLE_LINE1":"1 52620U 22052Y   22288.79662619  .00001921  00000-0  13875-3 0  9994","OBJECT_NAME":"STARLINK-3975","DECAY_DATE":null,"REV_AT_EPOCH":"2382","REF_FRAME":"TEME","TLE_LINE2":"2 52620  53.2162  94.7014 0001855  59.3687 300.7488 15.08850337 23823","COUNTRY_CODE":"US","TIME_SYSTEM":"UTC","PERIAPSIS":"538.431","NORAD_CAT_ID":"52620","BSTAR":"0.00013875000000","MEAN_MOTION_DDOT":"0.0000000000000","ELEMENT_SET_NO":"999","OBJECT_ID":"2022-052Y","MEAN_ELEMENT_THEORY":"SGP4","INCLINATION":"53.2162","MEAN_MOTION":"15.08850337","GP_ID":"215210139","SITE":"AFETR","MEAN_MOTION_DOT":"0.00001921","ARG_OF_PERICENTER":"59.3687","EPOCH":"2022-10-15T19:07:08.502816","APOAPSIS":"540.997","PERIOD":"95.437","ECCENTRICITY":"0.00018550","CLASSIFICATION_TYPE":"U","EPHEMERIS_TYPE":"0","SEMIMAJOR_AXIS":"6917.849","FILE":"3614977","RA_OF_ASC_NODE":"94.7014","MEAN_ANOMALY":"300.7488"},{"EPOCH":"2022-10-15T17:25:47.546400","MEAN_MOTION_DOT":"0.00001075","ARG_OF_PERICENTER":"40.4242","SITE":"AFETR","RA_OF_ASC_NODE":"80.0299","MEAN_ANOMALY":"319.6891","FILE":"3615679","EPHEMERIS_TYPE":"0","SEMIMAJOR_AXIS":"6917.857","PERIOD":"95.437","CLASSIFICATION_TYPE":"U","ECCENTRICITY":"0.00019010","APOAPSIS":"541.038","PERIAPSIS":"538.407","TIME_SYSTEM":"UTC","COUNTRY_CODE":"US","DECAY_DATE":null,"REV_AT_EPOCH":"2364","REF_FRAME":"TEME","TLE_LINE2":"2 52621  53.2181  80.0299 0001901  40.4242 319.6891 15.08847513 23647","TLE_LINE1":"1 52621U 22052Z   22288.72624475  .00001075  00000-0  85630-4 0  9995","OBJECT_NAME":"STARLINK-3984","RCS_SIZE":"LARGE","CENTER_NAME":"EARTH","OBJECT_TYPE":"PAYLOAD","LAUNCH_DATE":"2022-05-14","MEAN_MOTION":"15.08847513","GP_ID":"215250034","INCLINATION":"53.2181","MEAN_ELEMENT_THEORY":"SGP4","OBJECT_ID":"2022-052Z","ELEMENT_SET_NO":"999","NORAD_CAT_ID":"52621","BSTAR":"0.00008563000000","MEAN_MOTION_DDOT":"0.0000000000000"},{"PERIOD":"95.438","CLASSIFICATION_TYPE":"U","ECCENTRICITY":"0.00014050","APOAPSIS":"540.723","EPHEMERIS_TYPE":"0","SEMIMAJOR_AXIS":"6917.886","RA_OF_ASC_NODE":"94.8701","MEAN_ANOMALY":"289.0203","FILE":"3615679","SITE":"AFETR","MEAN_MOTION_DOT":"-0.00001494","ARG_OF_PERICENTER":"71.0941","EPOCH":"2022-10-15T18:14:09.411360","NORAD_CAT_ID":"52622","BSTAR":"-0.00007580900000","MEAN_MOTION_DDOT":"0.0000000000000","OBJECT_ID":"2022-052AA","ELEMENT_SET_NO":"999","INCLINATION":"53.2182","MEAN_ELEMENT_THEORY":"SGP4","MEAN_MOTION":"15.08838214","GP_ID":"215250118","OBJECT_TYPE":"PAYLOAD","LAUNCH_DATE":"2022-05-14","RCS_SIZE":"LARGE","CENTER_NAME":"EARTH","REV_AT_EPOCH":"2344","DECAY_DATE":null,"REF_FRAME":"TEME","TLE_LINE2":"2 52622  53.2182  94.8701 0001405  71.0941 289.0203 15.08838214 23448","OBJECT_NAME":"STARLINK-4008","TLE_LINE1":"1 52622U 22052AA  22288.75983115 -.00001494  00000-0 -75809-4 0  9992","PERIAPSIS":"538.779","TIME_SYSTEM":"UTC","COUNTRY_CODE":"US"},{"MEAN_MOTION_DDOT":"0.0000000000000","BSTAR":"-0.00000815780000","NORAD_CAT_ID":"52623","ELEMENT_SET_NO":"999","OBJECT_ID":"2022-052AB","MEAN_ELEMENT_THEORY":"SGP4","INCLINATION":"53.2176","GP_ID":"215210563","MEAN_MOTION":"15.08843722","LAUNCH_DATE":"2022-05-14","OBJECT_TYPE":"PAYLOAD","CENTER_NAME":"EARTH","RCS_SIZE":"LARGE","TLE_LINE1":"1 52623U 22052AB  22288.78880659 -.00000418  00000-0 -81578-5 0  9991","OBJECT_NAME":"STARLINK-3986","TLE_LINE2":"2 52623  53.2176  79.7492 0002343  38.0576 322.0581 15.08843722 24033","REF_FRAME":"TEME","REV_AT_EPOCH":"2403","DECAY_DATE":null,"COUNTRY_CODE":"US","TIME_SYSTEM":"UTC","PERIAPSIS":"538.113","APOAPSIS":"541.355","PERIOD":"95.437","CLASSIFICATION_TYPE":"U","ECCENTRICITY":"0.00023430","SEMIMAJOR_AXIS":"6917.869","EPHEMERIS_TYPE":"0","FILE":"3614976","MEAN_ANOMALY":"322.0581","RA_OF_ASC_NODE":"79.7492","SITE":"AFETR","ARG_OF_PERICENTER":"38.0576","MEAN_MOTION_DOT":"-0.00000418","EPOCH":"2022-10-15T18:55:52.889376"},{"RCS_SIZE":"LARGE","CENTER_NAME":"EARTH","OBJECT_TYPE":"PAYLOAD","LAUNCH_DATE":"2022-05-14","TIME_SYSTEM":"UTC","PERIAPSIS":"538.479","COUNTRY_CODE":"US","REF_FRAME":"TEME","TLE_LINE2":"2 52624  53.2174  79.6981 0001824  43.9248 316.1889 15.08841494 24037","DECAY_DATE":null,"REV_AT_EPOCH":"2403","TLE_LINE1":"1 52624U 22052AC  22288.79985435  .00001640  00000-0  12113-3 0  9994","OBJECT_NAME":"STARLINK-4009","OBJECT_ID":"2022-052AC","ELEMENT_SET_NO":"999","BSTAR":"0.00012113000000","MEAN_MOTION_DDOT":"0.0000000000000","NORAD_CAT_ID":"52624","GP_ID":"215210183","MEAN_MOTION":"15.08841494","INCLINATION":"53.2174","MEAN_ELEMENT_THEORY":"SGP4","ARG_OF_PERICENTER":"43.9248","MEAN_MOTION_DOT":"0.00001640","SITE":"AFETR","EPOCH":"2022-10-15T19:11:47.415840","ECCENTRICITY":"0.00018240","PERIOD":"95.437","CLASSIFICATION_TYPE":"U","APOAPSIS":"541.003","MEAN_ANOMALY":"316.1889","RA_OF_ASC_NODE":"79.6981","FILE":"3614978","SEMIMAJOR_AXIS":"6917.876","EPHEMERIS_TYPE":"0"},{"APOAPSIS":"540.693","PERIOD":"95.437","ECCENTRICITY":"0.00014130","CLASSIFICATION_TYPE":"U","FILE":"3615679","MEAN_ANOMALY":"277.7192","RA_OF_ASC_NODE":"80.0437","SEMIMAJOR_AXIS":"6917.850","EPHEMERIS_TYPE":"0","ARG_OF_PERICENTER":"82.3961","MEAN_MOTION_DOT":"0.00003444","SITE":"AFETR","EPOCH":"2022-10-15T17:15:12.113280","ELEMENT_SET_NO":"999","OBJECT_ID":"2022-052AD","BSTAR":"0.00023429000000","MEAN_MOTION_DDOT":"0.0000000000000","NORAD_CAT_ID":"52625","GP_ID":"215250452","MEAN_MOTION":"15.08849788","MEAN_ELEMENT_THEORY":"SGP4","INCLINATION":"53.2181","RCS_SIZE":"LARGE","CENTER_NAME":"EARTH","LAUNCH_DATE":"2022-05-14","OBJECT_TYPE":"PAYLOAD","COUNTRY_CODE":"US","PERIAPSIS":"538.738","TIME_SYSTEM":"UTC","TLE_LINE1":"1 52625U 22052AD  22288.71889020  .00003444  00000-0  23429-3 0  9996","OBJECT_NAME":"STARLINK-3988","REF_FRAME":"TEME","TLE_LINE2":"2 52625  53.2181  80.0437 0001413  82.3961 277.7192 15.08849788 23640","REV_AT_EPOCH":"2364","DECAY_DATE":null},{"PERIOD":"95.438","ECCENTRICITY":"0.00017280","CLASSIFICATION_TYPE":"U","APOAPSIS":"540.953","SEMIMAJOR_AXIS":"6917.893","EPHEMERIS_TYPE":"0","MEAN_ANOMALY":"297.2666","RA_OF_ASC_NODE":"79.7122","FILE":"3615679","SITE":"AFETR","ARG_OF_PERICENTER":"62.8502","MEAN_MOTION_DOT":"-0.00000920","EPOCH":"2022-10-15T19:06:29.526048","MEAN_MOTION_DDOT":"0.0000000000000","BSTAR":"-0.00003971200000","NORAD_CAT_ID":"52626","OBJECT_ID":"2022-052AE","ELEMENT_SET_NO":"999","INCLINATION":"53.2168","MEAN_ELEMENT_THEORY":"SGP4","GP_ID":"215249700","MEAN_MOTION":"15.08835883","OBJECT_TYPE":"PAYLOAD","LAUNCH_DATE":"2022-05-14","CENTER_NAME":"EARTH","RCS_SIZE":"LARGE","TLE_LINE2":"2 52626  53.2168  79.7122 0001728  62.8502 297.2666 15.08835883 23650","REF_FRAME":"TEME","DECAY_DATE":null,"REV_AT_EPOCH":"2365","OBJECT_NAME":"STARLINK-3990","TLE_LINE1":"1 52626U 22052AE  22288.79617507 -.00000920  00000-0 -39712-4 0  9995","TIME_SYSTEM":"UTC","PERIAPSIS":"538.563","COUNTRY_CODE":"US"},{"SITE":"AFETR","MEAN_MOTION_DOT":"0.00002753","ARG_OF_PERICENTER":"45.8219","EPOCH":"2022-10-15T15:23:55.453920","ECCENTRICITY":"0.00016100","PERIOD":"95.438","CLASSIFICATION_TYPE":"U","APOAPSIS":"540.902","EPHEMERIS_TYPE":"0","SEMIMAJOR_AXIS":"6917.924","RA_OF_ASC_NODE":"80.4067","MEAN_ANOMALY":"314.2905","FILE":"3615679","OBJECT_TYPE":"PAYLOAD","LAUNCH_DATE":"2022-05-14","RCS_SIZE":"LARGE","CENTER_NAME":"EARTH","REV_AT_EPOCH":"2364","DECAY_DATE":null,"REF_FRAME":"TEME","TLE_LINE2":"2 52627  53.2214  80.4067 0001610  45.8219 314.2905 15.08825893 23641","TLE_LINE1":"1 52627U 22052AF  22288.64161405  .00002753  00000-0  19105-3 0  9998","OBJECT_NAME":"STARLINK-3992","PERIAPSIS":"538.675","TIME_SYSTEM":"UTC","COUNTRY_CODE":"US","NORAD_CAT_ID":"52627","BSTAR":"0.00019105000000","MEAN_MOTION_DDOT":"0.0000000000000","OBJECT_ID":"2022-052AF","ELEMENT_SET_NO":"999","INCLINATION":"53.2214","MEAN_ELEMENT_THEORY":"SGP4","MEAN_MOTION":"15.08825893","GP_ID":"215250619"}];
